{
  "type": "FeatureCollection",
  "features": [
    {
      "type": "Feature",
      "properties": {
        "norad_id": 38091,
        "name": "BEIDOU-2 G5 (C05)",
        "group": "gnss",
        "lat": 0.725613373806314,
        "lon": -123.0468185277911,
        "alt_km": 35763.3508201119,
        "timestamp": "2025-12-22T05:49:03.741453+00:00",
        "meta_object_name": "BEIDOU-2 G5 (C05)",
        "meta_object_id": "2012-008A",
        "meta_epoch": "2025-12-19T16:03:31.750272",
        "meta_mean_motion": 1.00268606,
        "meta_eccentricity": 0.0012969,
        "meta_inclination": 3.1258,
        "meta_ra_of_asc_node": 70.6861,
        "meta_arg_of_pericenter": 231.3522,
        "meta_mean_anomaly": 86.1393,
        "meta_ephemeris_type": 0,
        "meta_classification_type": "U",
        "meta_norad_cat_id": 38091,
        "meta_element_set_no": 999,
        "meta_rev_at_epoch": 5056,
        "meta_bstar": 0,
        "meta_mean_motion_dot": 7.9e-07,
        "meta_mean_motion_ddot": 0,
        "tle_line1": "1 38091U 12008A   25353.66911748  .00000079  00000+0  00000+0 0  9996",
        "tle_line2": "2 38091   3.1258  70.6861 0012969 231.3522  86.1393  1.00268606 50560"
      },
      "geometry": {
        "type": "Point",
        "coordinates": [
          -123.0468185277911,
          0.725613373806314
        ]
      }
    },
    {
      "type": "Feature",
      "properties": {
        "norad_id": 38250,
        "name": "BEIDOU-2 M3 (C11)",
        "group": "gnss",
        "lat": 10.677827901344179,
        "lon": 123.48772521248756,
        "alt_km": 21548.112913551147,
        "timestamp": "2025-12-22T05:49:03.741474+00:00",
        "meta_object_name": "BEIDOU-2 M3 (C11)",
        "meta_object_id": "2012-018A",
        "meta_epoch": "2025-12-21T10:55:56.735328",
        "meta_mean_motion": 1.86230186,
        "meta_eccentricity": 0.0024104,
        "meta_inclination": 55.9128,
        "meta_ra_of_asc_node": 310.8648,
        "meta_arg_of_pericenter": 275.302,
        "meta_mean_anomaly": 84.4165,
        "meta_ephemeris_type": 0,
        "meta_classification_type": "U",
        "meta_norad_cat_id": 38250,
        "meta_element_set_no": 999,
        "meta_rev_at_epoch": 9263,
        "meta_bstar": 0,
        "meta_mean_motion_dot": -6.3e-07,
        "meta_mean_motion_ddot": 0,
        "tle_line1": "1 38250U 12018A   25355.45551777 -.00000063  00000+0  00000+0 0  9999",
        "tle_line2": "2 38250  55.9128 310.8648 0024104 275.3020  84.4165  1.86230186 92633"
      },
      "geometry": {
        "type": "Point",
        "coordinates": [
          123.48772521248756,
          10.677827901344179
        ]
      }
    },
    {
      "type": "Feature",
      "properties": {
        "norad_id": 38251,
        "name": "BEIDOU-2 M4 (C12)",
        "group": "gnss",
        "lat": -26.64168861834983,
        "lon": 149.9605315463465,
        "alt_km": 21514.607034361656,
        "timestamp": "2025-12-22T05:49:03.741495+00:00",
        "meta_object_name": "BEIDOU-2 M4 (C12)",
        "meta_object_id": "2012-018B",
        "meta_epoch": "2025-12-21T09:18:07.121952",
        "meta_mean_motion": 1.86229909,
        "meta_eccentricity": 0.0015253,
        "meta_inclination": 55.814,
        "meta_ra_of_asc_node": 310.0952,
        "meta_arg_of_pericenter": 279.1572,
        "meta_mean_anomaly": 80.6641,
        "meta_ephemeris_type": 0,
        "meta_classification_type": "U",
        "meta_norad_cat_id": 38251,
        "meta_element_set_no": 999,
        "meta_rev_at_epoch": 9263,
        "meta_bstar": 0,
        "meta_mean_motion_dot": -6.3e-07,
        "meta_mean_motion_ddot": 0,
        "tle_line1": "1 38251U 12018B   25355.38758243 -.00000063  00000+0  00000+0 0  9999",
        "tle_line2": "2 38251  55.8140 310.0952 0015253 279.1572  80.6641  1.86229909 92634"
      },
      "geometry": {
        "type": "Point",
        "coordinates": [
          149.9605315463465,
          -26.64168861834983
        ]
      }
    },
    {
      "type": "Feature",
      "properties": {
        "norad_id": 38652,
        "name": "SES-5 (EGNOS/PRN 136)",
        "group": "gnss",
        "lat": -0.04770311849360257,
        "lon": -176.73014486985537,
        "alt_km": 35785.530012950076,
        "timestamp": "2025-12-22T05:49:03.741508+00:00",
        "meta_object_name": "SES-5 (EGNOS/PRN 136)",
        "meta_object_id": "2012-036A",
        "meta_epoch": "2025-12-21T13:13:17.615712",
        "meta_mean_motion": 1.00272732,
        "meta_eccentricity": 0.0001865,
        "meta_inclination": 0.0577,
        "meta_ra_of_asc_node": 305.1377,
        "meta_arg_of_pericenter": 326.3264,
        "meta_mean_anomaly": 22.2085,
        "meta_ephemeris_type": 0,
        "meta_classification_type": "U",
        "meta_norad_cat_id": 38652,
        "meta_element_set_no": 999,
        "meta_rev_at_epoch": 4267,
        "meta_bstar": 0,
        "meta_mean_motion_dot": 5.7e-07,
        "meta_mean_motion_ddot": 0,
        "tle_line1": "1 38652U 12036A   25355.55089833  .00000057  00000+0  00000+0 0  9997",
        "tle_line2": "2 38652   0.0577 305.1377 0001865 326.3264  22.2085  1.00272732 42679"
      },
      "geometry": {
        "type": "Point",
        "coordinates": [
          -176.73014486985537,
          -0.04770311849360257
        ]
      }
    },
    {
      "type": "Feature",
      "properties": {
        "norad_id": 38775,
        "name": "BEIDOU-2 M6 (C14)",
        "group": "gnss",
        "lat": 37.561760133116366,
        "lon": 99.48912115495291,
        "alt_km": 21509.318876823036,
        "timestamp": "2025-12-22T05:49:03.741533+00:00",
        "meta_object_name": "BEIDOU-2 M6 (C14)",
        "meta_object_id": "2012-050B",
        "meta_epoch": "2025-12-21T02:21:46.465344",
        "meta_mean_motion": 1.86230924,
        "meta_eccentricity": 0.00113708,
        "meta_inclination": 56.3853,
        "meta_ra_of_asc_node": 68.7901,
        "meta_arg_of_pericenter": 343.4825,
        "meta_mean_anomaly": 16.5255,
        "meta_ephemeris_type": 0,
        "meta_classification_type": "U",
        "meta_norad_cat_id": 38775,
        "meta_element_set_no": 999,
        "meta_rev_at_epoch": 8999,
        "meta_bstar": 0,
        "meta_mean_motion_dot": -3.7e-07,
        "meta_mean_motion_ddot": 0,
        "tle_line1": "1 38775U 12050B   25355.09845446 -.00000037  00000+0  00000+0 0  9997",
        "tle_line2": "2 38775  56.3853  68.7901 0011370 343.4825  16.5255  1.86230924 89998"
      },
      "geometry": {
        "type": "Point",
        "coordinates": [
          99.48912115495291,
          37.561760133116366
        ]
      }
    },
    {
      "type": "Feature",
      "properties": {
        "norad_id": 38779,
        "name": "GSAT-10 (GAGAN/PRN 128)",
        "group": "gnss",
        "lat": -0.028201675289310703,
        "lon": -98.64189346213047,
        "alt_km": 35793.58638029408,
        "timestamp": "2025-12-22T05:49:03.741548+00:00",
        "meta_object_name": "GSAT-10 (GAGAN/PRN 128)",
        "meta_object_id": "2012-051B",
        "meta_epoch": "2025-12-21T18:17:27.161088",
        "meta_mean_motion": 1.00271943,
        "meta_eccentricity": 0.0002371,
        "meta_inclination": 0.0702,
        "meta_ra_of_asc_node": 263.9995,
        "meta_arg_of_pericenter": 218.9592,
        "meta_mean_anomaly": 325.013,
        "meta_ephemeris_type": 0,
        "meta_classification_type": "U",
        "meta_norad_cat_id": 38779,
        "meta_element_set_no": 999,
        "meta_rev_at_epoch": 4832,
        "meta_bstar": 0,
        "meta_mean_motion_dot": -1.43e-06,
        "meta_mean_motion_ddot": 0,
        "tle_line1": "1 38779U 12051B   25355.76211992 -.00000143  00000+0  00000+0 0  9997",
        "tle_line2": "2 38779   0.0702 263.9995 0002371 218.9592 325.0130  1.00271943 48325"
      },
      "geometry": {
        "type": "Point",
        "coordinates": [
          -98.64189346213047,
          -0.028201675289310703
        ]
      }
    },
    {
      "type": "Feature",
      "properties": {
        "norad_id": 38833,
        "name": "GPS BIIF-3  (PRN 24)",
        "group": "gnss",
        "lat": -43.47381593873255,
        "lon": 106.36787827994102,
        "alt_km": 20435.373861224787,
        "timestamp": "2025-12-22T05:49:03.741564+00:00",
        "meta_object_name": "GPS BIIF-3  (PRN 24)",
        "meta_object_id": "2012-053A",
        "meta_epoch": "2025-12-21T07:50:41.138592",
        "meta_mean_motion": 2.00565076,
        "meta_eccentricity": 0.0176016,
        "meta_inclination": 53.5593,
        "meta_ra_of_asc_node": 150.887,
        "meta_arg_of_pericenter": 64.1244,
        "meta_mean_anomaly": 297.6553,
        "meta_ephemeris_type": 0,
        "meta_classification_type": "U",
        "meta_norad_cat_id": 38833,
        "meta_element_set_no": 999,
        "meta_rev_at_epoch": 9587,
        "meta_bstar": 0,
        "meta_mean_motion_dot": 6e-07,
        "meta_mean_motion_ddot": 0,
        "tle_line1": "1 38833U 12053A   25355.32686503  .00000060  00000+0  00000+0 0  9993",
        "tle_line2": "2 38833  53.5593 150.8870 0176016  64.1244 297.6553  2.00565076 95875"
      },
      "geometry": {
        "type": "Point",
        "coordinates": [
          106.36787827994102,
          -43.47381593873255
        ]
      }
    }
  ]
}